STARLINK-30155          
1 57475U 23107U   26068.17935041  .00000391  00000+0  24290-4 0  9996
2 57475  43.0046 338.5844 0002593 269.8096  90.2458 15.26734779145077
FLOCK 4G-7              
1 62624U 25009R   26068.79996108  .00011422  00000+0  43168-3 0  9991
2 62624  97.3984 150.8270 0001396 336.9783  23.1393 15.27141471 63725
