[{"OBJECT_NAME":"STARLINK-30155","OBJECT_ID":"2023-107U","EPOCH":"2026-03-09T04:18:15.875424","MEAN_MOTION":15.26734779,"ECCENTRICITY":0.00025937,"INCLINATION":43.0046,"RA_OF_ASC_NODE":338.5844,"ARG_OF_PERICENTER":269.8096,"MEAN_ANOMALY":90.2458,"EPHEMERIS_TYPE":0,"CLASSIFICATION_TYPE":"U","NORAD_CAT_ID":57475,"ELEMENT_SET_NO":999,"REV_AT_EPOCH":14507,"BSTAR":2.4290445e-5,"MEAN_MOTION_DOT":3.91e-6,"MEAN_MOTION_DDOT":0},{"OBJECT_NAME":"FLOCK 4G-7","OBJECT_ID":"2025-009R","EPOCH":"2026-03-09T19:11:56.638176","MEAN_MOTION":15.27141471,"ECCENTRICITY":0.00013963,"INCLINATION":97.3984,"RA_OF_ASC_NODE":150.827,"ARG_OF_PERICENTER":336.9783,"MEAN_ANOMALY":23.1393,"EPHEMERIS_TYPE":0,"CLASSIFICATION_TYPE":"U","NORAD_CAT_ID":62624,"ELEMENT_SET_NO":999,"REV_AT_EPOCH":6372,"BSTAR":0.0004316781,"MEAN_MOTION_DOT":0.00011422,"MEAN_MOTION_DDOT":0}]
